CCSDS_OMM_VERS = 2.0
CREATION_DATE  = 
ORIGINATOR     = 

OBJECT_NAME    = SL-3 R/B
OBJECT_ID      = 1982-079B
CENTER_NAME    = EARTH
REF_FRAME      = TEME
TIME_SYSTEM    = UTC
MEAN_ELEMENT_THEORY = SGP/SGP4

EPOCH          = 2026-01-15T02:30:33.009408
MEAN_MOTION    = 15.24030813
ECCENTRICITY   = .0025334
INCLINATION    = 81.1460
RA_OF_ASC_NODE = 256.3214
ARG_OF_PERICENTER = 350.2833
MEAN_ANOMALY   = 9.7906

EPHEMERIS_TYPE = 0
CLASSIFICATION_TYPE = U
NORAD_CAT_ID   = 13403
ELEMENT_SET_NO = 999
REV_AT_EPOCH   = 36953
BSTAR          = .11703E-3
MEAN_MOTION_DOT = .2888E-4
MEAN_MOTION_DDOT = 0

CCSDS_OMM_VERS = 2.0
CREATION_DATE  = 
ORIGINATOR     = 

OBJECT_NAME    = SL-14 R/B
OBJECT_ID      = 1982-092B
CENTER_NAME    = EARTH
REF_FRAME      = TEME
TIME_SYSTEM    = UTC
MEAN_ELEMENT_THEORY = SGP/SGP4

EPOCH          = 2026-01-14T22:36:41.029920
MEAN_MOTION    = 14.86593625
ECCENTRICITY   = .0021699
INCLINATION    = 82.5672
RA_OF_ASC_NODE = 191.6580
ARG_OF_PERICENTER = 117.6548
MEAN_ANOMALY   = 358.1826

EPHEMERIS_TYPE = 0
CLASSIFICATION_TYPE = U
NORAD_CAT_ID   = 13553
ELEMENT_SET_NO = 999
REV_AT_EPOCH   = 32094
BSTAR          = .38104E-4
MEAN_MOTION_DOT = .364E-5
MEAN_MOTION_DDOT = 0

CCSDS_OMM_VERS = 2.0
CREATION_DATE  = 
ORIGINATOR     = 

OBJECT_NAME    = SL-3 R/B
OBJECT_ID      = 1983-010B
CENTER_NAME    = EARTH
REF_FRAME      = TEME
TIME_SYSTEM    = UTC
MEAN_ELEMENT_THEORY = SGP/SGP4

EPOCH          = 2026-01-15T03:33:52.556544
MEAN_MOTION    = 15.44475872
ECCENTRICITY   = .0016328
INCLINATION    = 81.1034
RA_OF_ASC_NODE = 67.8068
ARG_OF_PERICENTER = 230.0363
MEAN_ANOMALY   = 129.9448

EPHEMERIS_TYPE = 0
CLASSIFICATION_TYPE = U
NORAD_CAT_ID   = 13819
ELEMENT_SET_NO = 999
REV_AT_EPOCH   = 34967
BSTAR          = .16519E-3
MEAN_MOTION_DOT = .7717E-4
MEAN_MOTION_DDOT = 0

CCSDS_OMM_VERS = 2.0
CREATION_DATE  = 
ORIGINATOR     = 

OBJECT_NAME    = SL-3 R/B
OBJECT_ID      = 1983-075B
CENTER_NAME    = EARTH
REF_FRAME      = TEME
TIME_SYSTEM    = UTC
MEAN_ELEMENT_THEORY = SGP/SGP4

EPOCH          = 2026-01-15T03:08:23.446752
MEAN_MOTION    = 15.36925128
ECCENTRICITY   = .0024288
INCLINATION    = 97.6112
RA_OF_ASC_NODE = 17.7566
ARG_OF_PERICENTER = 63.6807
MEAN_ANOMALY   = 296.6928

EPHEMERIS_TYPE = 0
CLASSIFICATION_TYPE = U
NORAD_CAT_ID   = 14208
ELEMENT_SET_NO = 999
REV_AT_EPOCH   = 32192
BSTAR          = .17966E-3
MEAN_MOTION_DOT = .6461E-4
MEAN_MOTION_DDOT = 0

CCSDS_OMM_VERS = 2.0
CREATION_DATE  = 
ORIGINATOR     = 

OBJECT_NAME    = COSMOS 1536
OBJECT_ID      = 1984-013A
CENTER_NAME    = EARTH
REF_FRAME      = TEME
TIME_SYSTEM    = UTC
MEAN_ELEMENT_THEORY = SGP/SGP4

EPOCH          = 2026-01-14T20:38:10.423104
MEAN_MOTION    = 15.23005192
ECCENTRICITY   = .0015637
INCLINATION    = 82.5459
RA_OF_ASC_NODE = 161.3074
ARG_OF_PERICENTER = 110.6730
MEAN_ANOMALY   = 249.6184

EPHEMERIS_TYPE = 0
CLASSIFICATION_TYPE = U
NORAD_CAT_ID   = 14699
ELEMENT_SET_NO = 999
REV_AT_EPOCH   = 26442
BSTAR          = .15957E-3
MEAN_MOTION_DOT = .3797E-4
MEAN_MOTION_DDOT = 0

CCSDS_OMM_VERS = 2.0
CREATION_DATE  = 
ORIGINATOR     = 

OBJECT_NAME    = SL-14 R/B
OBJECT_ID      = 1984-027B
CENTER_NAME    = EARTH
REF_FRAME      = TEME
TIME_SYSTEM    = UTC
MEAN_ELEMENT_THEORY = SGP/SGP4

EPOCH          = 2026-01-15T03:48:43.555680
MEAN_MOTION    = 14.85914879
ECCENTRICITY   = .001875
INCLINATION    = 82.5432
RA_OF_ASC_NODE = 295.2200
ARG_OF_PERICENTER = 146.4506
MEAN_ANOMALY   = 213.7903

EPHEMERIS_TYPE = 0
CLASSIFICATION_TYPE = U
NORAD_CAT_ID   = 14820
ELEMENT_SET_NO = 999
REV_AT_EPOCH   = 23968
BSTAR          = .31122E-4
MEAN_MOTION_DOT = .297E-5
MEAN_MOTION_DDOT = 0

CCSDS_OMM_VERS = 2.0
CREATION_DATE  = 
ORIGINATOR     = 

OBJECT_NAME    = SL-8 R/B
OBJECT_ID      = 1985-006B
CENTER_NAME    = EARTH
REF_FRAME      = TEME
TIME_SYSTEM    = UTC
MEAN_ELEMENT_THEORY = SGP/SGP4

EPOCH          = 2026-01-15T03:41:59.386848
MEAN_MOTION    = 14.37745926
ECCENTRICITY   = .0019774
INCLINATION    = 74.0465
RA_OF_ASC_NODE = 359.6529
ARG_OF_PERICENTER = 286.3198
MEAN_ANOMALY   = 152.7022

EPHEMERIS_TYPE = 0
CLASSIFICATION_TYPE = U
NORAD_CAT_ID   = 15483
ELEMENT_SET_NO = 999
REV_AT_EPOCH   = 14633
BSTAR          = .74987E-4
MEAN_MOTION_DOT = .2E-5
MEAN_MOTION_DDOT = 0

CCSDS_OMM_VERS = 2.0
CREATION_DATE  = 
ORIGINATOR     = 

OBJECT_NAME    = SL-12 R/B(2)
OBJECT_ID      = 1985-042D
CENTER_NAME    = EARTH
REF_FRAME      = TEME
TIME_SYSTEM    = UTC
MEAN_ELEMENT_THEORY = SGP/SGP4

EPOCH          = 2026-01-14T23:01:27.446016
MEAN_MOTION    = 14.21962224
ECCENTRICITY   = .0036409
INCLINATION    = 71.1063
RA_OF_ASC_NODE = 201.2405
ARG_OF_PERICENTER = 212.3165
MEAN_ANOMALY   = 258.1638

EPHEMERIS_TYPE = 0
CLASSIFICATION_TYPE = U
NORAD_CAT_ID   = 15772
ELEMENT_SET_NO = 999
REV_AT_EPOCH   = 10675
BSTAR          = .17301E-4
MEAN_MOTION_DOT = -.9E-7
MEAN_MOTION_DDOT = 0

CCSDS_OMM_VERS = 2.0
CREATION_DATE  = 
ORIGINATOR     = 

OBJECT_NAME    = SL-14 R/B
OBJECT_ID      = 1985-069B
CENTER_NAME    = EARTH
REF_FRAME      = TEME
TIME_SYSTEM    = UTC
MEAN_ELEMENT_THEORY = SGP/SGP4

EPOCH          = 2026-01-15T03:50:13.421184
MEAN_MOTION    = 14.86364782
ECCENTRICITY   = .0019108
INCLINATION    = 82.5256
RA_OF_ASC_NODE = 75.2824
ARG_OF_PERICENTER = 14.5391
MEAN_ANOMALY   = 345.6371

EPHEMERIS_TYPE = 0
CLASSIFICATION_TYPE = U
NORAD_CAT_ID   = 15945
ELEMENT_SET_NO = 999
REV_AT_EPOCH   = 16488
BSTAR          = .30331E-4
MEAN_MOTION_DOT = .293E-5
MEAN_MOTION_DDOT = 0

CCSDS_OMM_VERS = 2.0
CREATION_DATE  = 
ORIGINATOR     = 

OBJECT_NAME    = SL-16 R/B
OBJECT_ID      = 1985-097B
CENTER_NAME    = EARTH
REF_FRAME      = TEME
TIME_SYSTEM    = UTC
MEAN_ELEMENT_THEORY = SGP/SGP4

EPOCH          = 2026-01-15T03:05:30.545664
MEAN_MOTION    = 14.16592310
ECCENTRICITY   = .0008677
INCLINATION    = 71.0019
RA_OF_ASC_NODE = 253.3117
ARG_OF_PERICENTER = 323.2337
MEAN_ANOMALY   = 199.1559

EPHEMERIS_TYPE = 0
CLASSIFICATION_TYPE = U
NORAD_CAT_ID   = 16182
ELEMENT_SET_NO = 999
REV_AT_EPOCH   = 7964
BSTAR          = -.23595E-4
MEAN_MOTION_DOT = -.95E-6
MEAN_MOTION_DDOT = 0

CCSDS_OMM_VERS = 2.0
CREATION_DATE  = 
ORIGINATOR     = 

OBJECT_NAME    = SL-14 R/B
OBJECT_ID      = 1986-006B
CENTER_NAME    = EARTH
REF_FRAME      = TEME
TIME_SYSTEM    = UTC
MEAN_ELEMENT_THEORY = SGP/SGP4

EPOCH          = 2026-01-14T19:32:25.721376
MEAN_MOTION    = 14.86720984
ECCENTRICITY   = .0078293
INCLINATION    = 82.5287
RA_OF_ASC_NODE = 310.4338
ARG_OF_PERICENTER = 91.2288
MEAN_ANOMALY   = 269.7899

EPHEMERIS_TYPE = 0
CLASSIFICATION_TYPE = U
NORAD_CAT_ID   = 16496
ELEMENT_SET_NO = 999
REV_AT_EPOCH   = 14120
BSTAR          = .46635E-4
MEAN_MOTION_DOT = .467E-5
MEAN_MOTION_DDOT = 0

CCSDS_OMM_VERS = 2.0
CREATION_DATE  = 
ORIGINATOR     = 

OBJECT_NAME    = COSMOS 1743
OBJECT_ID      = 1986-034A
CENTER_NAME    = EARTH
REF_FRAME      = TEME
TIME_SYSTEM    = UTC
MEAN_ELEMENT_THEORY = SGP/SGP4

EPOCH          = 2026-01-14T18:26:40.869312
MEAN_MOTION    = 15.54400392
ECCENTRICITY   = .0005367
INCLINATION    = 82.5357
RA_OF_ASC_NODE = 130.2305
ARG_OF_PERICENTER = 129.1473
MEAN_ANOMALY   = 231.0258

EPHEMERIS_TYPE = 0
CLASSIFICATION_TYPE = U
NORAD_CAT_ID   = 16719
ELEMENT_SET_NO = 999
REV_AT_EPOCH   = 17186
BSTAR          = .32527E-3
MEAN_MOTION_DOT = .21404E-3
MEAN_MOTION_DDOT = 0

