SL-3 R/B                
1 13403U 82079B   26015.10454872  .00002888  00000+0  11703-3 0  9992
2 13403  81.1460 256.3214 0025334 350.2833   9.7906 15.24030813369531
SL-14 R/B               
1 13553U 82092B   26014.94214155  .00000364  00000+0  38104-4 0  9994
2 13553  82.5672 191.6580 0021699 117.6548 358.1826 14.86593625320948
SL-3 R/B                
1 13819U 83010B   26015.14852496  .00007717  00000+0  16519-3 0  9993
2 13819  81.1034  67.8068 0016328 230.0363 129.9448 15.44475872349676
SL-3 R/B                
1 14208U 83075B   26015.13082693  .00006461  00000+0  17966-3 0  9992
2 14208  97.6112  17.7566 0024288  63.6807 296.6928 15.36925128321920
COSMOS 1536             
1 14699U 84013A   26014.85984286  .00003797  00000+0  15957-3 0  9993
2 14699  82.5459 161.3074 0015637 110.6730 249.6184 15.23005192264426
SL-14 R/B               
1 14820U 84027B   26015.15883745  .00000297  00000+0  31122-4 0  9991
2 14820  82.5432 295.2200 0018750 146.4506 213.7903 14.85914879239687
SL-8 R/B                
1 15483U 85006B   26015.15415957  .00000200  00000+0  74987-4 0  9991
2 15483  74.0465 359.6529 0019774 286.3198 152.7022 14.37745926146337
SL-12 R/B(2)            
1 15772U 85042D   26014.95934544 -.00000009  00000+0  17301-4 0  9992
2 15772  71.1063 201.2405 0036409 212.3165 258.1638 14.21962224106753
SL-14 R/B               
1 15945U 85069B   26015.15987756  .00000293  00000+0  30331-4 0  9991
2 15945  82.5256  75.2824 0019108  14.5391 345.6371 14.86364782164889
SL-16 R/B               
1 16182U 85097B   26015.12882576 -.00000095  00000+0 -23595-4 0  9993
2 16182  71.0019 253.3117 0008677 323.2337 199.1559 14.16592310 79648
SL-14 R/B               
1 16496U 86006B   26014.81418659  .00000467  00000+0  46635-4 0  9995
2 16496  82.5287 310.4338 0078293  91.2288 269.7899 14.86720984141208
COSMOS 1743             
1 16719U 86034A   26014.76852858  .00021404  00000+0  32527-3 0  9999
2 16719  82.5357 130.2305 0005367 129.1473 231.0258 15.54400392171865
